{"type": "FeatureCollection", "crs": {"type": "name", "properties": {"name": "urn:ogc:def:crs:OGC:1.3:CRS84"}}, "_provenance": {"source": "Bharatmaps Parivesh Ramsar Wetlands", "licence": "CC0", "vintage": "2024", "access": "bharatlas", "slice": "Karnataka bbox 11.5-18.5N, 74.0-78.6E", "confidence": "inferred"}, "features": [{"type": "Feature", "geometry": {"type": "MultiPolygon", "coordinates": [[[[74.3400763, 14.5510027], [74.3405494, 14.5507218], [74.3406681, 14.5504351], [74.3405276, 14.5501256], [74.3411992, 14.5497834], [74.3416916, 14.5498064], [74.3423015, 14.5495402], [74.3426759, 14.5491394], [74.3432711, 14.5484835], [74.3434424, 14.5483312], [74.3434995, 14.5480076], [74.3439183, 14.5475507], [74.34428, 14.5470748], [74.3444703, 14.5466561], [74.3447749, 14.546104], [74.3450628, 14.5458928], [74.3454957, 14.5456452], [74.3460464, 14.5454554], [74.3464794, 14.5452078], [74.3466959, 14.5450745], [74.3467947, 14.5448834], [74.3469328, 14.5446733], [74.3471505, 14.544138], [74.3472686, 14.5436294], [74.3476243, 14.5433739], [74.347939, 14.5432217], [74.3483919, 14.5428976], [74.3485734, 14.5425351], [74.3486011, 14.5422588], [74.3488866, 14.5420494], [74.3492393, 14.5415801], [74.3494495, 14.5410783], [74.3494751, 14.5407196], [74.3495745, 14.5403132], [74.3495755, 14.5399903], [74.3496004, 14.5398588], [74.3497237, 14.5396797], [74.3498905, 14.5395935], [74.3500014, 14.5394742], [74.3501612, 14.5394029], [74.3505258, 14.539248], [74.3507797, 14.5393018], [74.3513886, 14.5395737], [74.3519169, 14.5394675], [74.3522354, 14.5391821], [74.3525569, 14.538955], [74.3520562, 14.5380207], [74.3513351, 14.5368585], [74.3509934, 14.5361638], [74.350767, 14.5358641], [74.3507188, 14.5355291], [74.3507322, 14.5351583], [74.3507573, 14.534967], [74.350771, 14.5345379], [74.3509624, 14.5342762], [74.3509862, 14.5337527], [74.3512718, 14.5331341], [74.3515573, 14.5323726], [74.3520094, 14.5319681], [74.3526995, 14.5313019], [74.3531516, 14.5308498], [74.3534133, 14.5301597], [74.3539606, 14.5293031], [74.3540557, 14.5287559], [74.3542223, 14.5282324], [74.3545554, 14.5275185], [74.3547113, 14.526898], [74.3547113, 14.5264792], [74.3547113, 14.5259652], [74.3547621, 14.5257083], [74.3550081, 14.5255594], [74.3553966, 14.5251467], [74.355606, 14.5244804], [74.3557773, 14.5240045], [74.3556822, 14.5234906], [74.3558034, 14.5232758], [74.3560819, 14.5227101], [74.3562152, 14.5224627], [74.3562152, 14.5221962], [74.3560248, 14.5218725], [74.3555299, 14.5216441], [74.3546352, 14.5215299], [74.3538167, 14.5214347], [74.3533598, 14.5213395], [74.3529791, 14.5212063], [74.3526555, 14.5210921], [74.3522557, 14.5209779], [74.3517798, 14.521035], [74.3515324, 14.5212824], [74.3512659, 14.5215109], [74.3509613, 14.5217583], [74.3507519, 14.5213586], [74.3507709, 14.521054], [74.3503712, 14.5211111], [74.3498953, 14.5210778], [74.3494432, 14.5209112], [74.3490149, 14.5206495], [74.3486104, 14.5206257], [74.3481583, 14.5208875], [74.3478728, 14.5207923], [74.3472541, 14.5207923], [74.3465641, 14.5210064], [74.3458978, 14.5210302], [74.345184, 14.5209588], [74.3446843, 14.5209112], [74.3441608, 14.5206971], [74.3440656, 14.5201974], [74.3440656, 14.5198167], [74.3439942, 14.5190315], [74.3438991, 14.5185794], [74.3436611, 14.5180321], [74.3431614, 14.5173896], [74.3431138, 14.5168424], [74.3424952, 14.5158668], [74.3420669, 14.5151054], [74.3419955, 14.5144391], [74.3417719, 14.5141522], [74.3426224, 14.5135419], [74.3438773, 14.5126603], [74.345551, 14.5113015], [74.3472738, 14.5099428], [74.3489717, 14.5086797], [74.349907, 14.5079168], [74.3505224, 14.5073683], [74.3513098, 14.5068203], [74.3525145, 14.5062734], [74.3530317, 14.5057246], [74.3539172, 14.5051769], [74.3545814, 14.5050117], [74.3548241, 14.505026], [74.355024, 14.5050545], [74.3551668, 14.505183], [74.3551668, 14.5053543], [74.3550811, 14.5054543], [74.3547956, 14.5054971], [74.3544101, 14.5057398], [74.3543673, 14.5061967], [74.3544529, 14.5064822], [74.35451, 14.5067963], [74.3546528, 14.5070247], [74.3547092, 14.50739], [74.3549361, 14.5076111], [74.355009, 14.5078625], [74.3550576, 14.508042], [74.3550695, 14.5081736], [74.3550813, 14.5083411], [74.3550438, 14.5085682], [74.3553095, 14.5087665], [74.355695, 14.5088521], [74.3559805, 14.5089235], [74.3561947, 14.5091091], [74.3564904, 14.5093138], [74.3567843, 14.5095658], [74.3571646, 14.5096625], [74.3576679, 14.5096758], [74.3579079, 14.5095803], [74.3582505, 14.5095803], [74.3584718, 14.5098001], [74.3585157, 14.5105724], [74.3585872, 14.5113333], [74.3587539, 14.5120111], [74.3586176, 14.5124294], [74.3583719, 14.5133237], [74.358124, 14.5135997], [74.358182, 14.5139157], [74.3585051, 14.5141042], [74.3587336, 14.5141994], [74.358824, 14.5145083], [74.3588823, 14.514719], [74.3589111, 14.5149583], [74.3589101, 14.5153219], [74.3588288, 14.5155509], [74.3586194, 14.5157603], [74.3585432, 14.5160649], [74.3588288, 14.5162933], [74.3590927, 14.5167098], [74.3593179, 14.5169688], [74.3595526, 14.5173283], [74.3597724, 14.5177164], [74.3599775, 14.5181188], [74.3601803, 14.5182921], [74.3604816, 14.5187326], [74.3611535, 14.519055], [74.3617781, 14.5193096], [74.3618352, 14.5196141], [74.361721, 14.5198235], [74.3615306, 14.5201852], [74.3615877, 14.5203756], [74.3621017, 14.52009], [74.3624173, 14.5202066], [74.362785, 14.5204229], [74.3635791, 14.5209561], [74.3641382, 14.5212016], [74.3648048, 14.5214987], [74.3650142, 14.5220507], [74.3653187, 14.5223743], [74.366407, 14.5225426], [74.3672413, 14.5225837], [74.3677553, 14.522717], [74.3677932, 14.5229769], [74.3680244, 14.5237191], [74.3682918, 14.5246647], [74.3686881, 14.5251155], [74.3688905, 14.5256949], [74.3691223, 14.5262099], [74.3694282, 14.5265934], [74.369956, 14.5266547], [74.3704717, 14.5266321], [74.3711836, 14.5267297], [74.3715269, 14.5268981], [74.3719622, 14.5268287], [74.3724952, 14.5268287], [74.3735422, 14.526448], [74.3737325, 14.5256865], [74.3739668, 14.5254391], [74.37437, 14.5244538], [74.3745916, 14.524251], [74.3747885, 14.5240841], [74.3749369, 14.5237137], [74.3746061, 14.5234616], [74.3742882, 14.5229704], [74.374387, 14.5227673], [74.3744489, 14.5225881], [74.374523, 14.5224558], [74.3746706, 14.5223546], [74.374769, 14.522307], [74.3747325, 14.5221873], [74.3746897, 14.5221094], [74.3745556, 14.5217742], [74.3746724, 14.5217027], [74.3747647, 14.5216312], [74.3748263, 14.5215536], [74.3749615, 14.5215002], [74.3751093, 14.5213271], [74.3751279, 14.5212793], [74.3750182, 14.520992], [74.3749143, 14.5208123], [74.3749086, 14.5206747], [74.3750623, 14.5205974], [74.3751975, 14.5205559], [74.3753136, 14.5207476], [74.3755102, 14.5206644], [74.3756887, 14.5205213], [74.3756647, 14.5203179], [74.3757878, 14.5201927], [74.3760152, 14.5200976], [74.3765625, 14.5194809], [74.3768193, 14.5191146], [74.3770538, 14.5186727], [74.3772939, 14.5184883], [74.3776934, 14.5179009], [74.3772287, 14.5169491], [74.3774762, 14.516359], [74.378338, 14.5160687], [74.3788208, 14.5156841], [74.3790562, 14.5155976], [74.3798747, 14.5155595], [74.3801602, 14.5149123], [74.38056, 14.5138463], [74.3810168, 14.5120379], [74.3809, 14.5108035], [74.3803194, 14.5099278], [74.3796912, 14.5091664], [74.3790059, 14.5085668], [74.3783492, 14.5082622], [74.3776925, 14.5080338], [74.3769406, 14.5078339], [74.3764647, 14.5078054], [74.3757736, 14.5075787], [74.3756339, 14.5075138], [74.3754351, 14.5074558], [74.3750674, 14.5072539], [74.3748688, 14.5071457], [74.3745817, 14.5070804], [74.3743363, 14.5070391], [74.3741233, 14.5070059], [74.3738664, 14.5069317], [74.3736762, 14.5069013], [74.3734676, 14.5068409], [74.3731302, 14.5067563], [74.3729525, 14.5066661], [74.3729965, 14.5062895], [74.3730286, 14.5057992], [74.3729924, 14.5055659], [74.3725324, 14.5054151], [74.3721339, 14.5052705], [74.371821, 14.505186], [74.371631, 14.5050778], [74.3714347, 14.5050534], [74.3712138, 14.5050109], [74.3710697, 14.5049167], [74.3708413, 14.5046502], [74.3702843, 14.5040763], [74.3701625, 14.5037411], [74.3698437, 14.5035728], [74.3693657, 14.5033084], [74.3688711, 14.5032035], [74.3685475, 14.5030512], [74.3685288, 14.5028732], [74.3683817, 14.5027651], [74.3684068, 14.5025738], [74.3683371, 14.5023607], [74.3686674, 14.5015175], [74.368972, 14.501232], [74.3692861, 14.500975], [74.3694193, 14.5005277], [74.3696097, 14.5000137], [74.3699428, 14.4995569], [74.3701903, 14.4994807], [74.3706583, 14.4996968], [74.3710216, 14.4997456], [74.3711603, 14.4993249], [74.3712991, 14.498866], [74.3714376, 14.4984836], [74.3711516, 14.4982149], [74.3712425, 14.498043], [74.3713255, 14.497443], [74.3715682, 14.4968148], [74.3721212, 14.4963995], [74.3723484, 14.4959408], [74.372534, 14.4956949], [74.3723996, 14.4954793], [74.3722835, 14.4952936], [74.3722963, 14.4951142], [74.3724444, 14.4948096], [74.3726515, 14.4945273], [74.3726833, 14.4943383], [74.3729342, 14.4943845], [74.373189, 14.4941358], [74.373294, 14.4939268], [74.3736376, 14.4939875], [74.3739885, 14.4940339], [74.3743713, 14.4941013], [74.37471, 14.4937374], [74.3752659, 14.4937882], [74.3757495, 14.4938376], [74.3761976, 14.4938388], [74.376508, 14.4937311], [74.3768795, 14.4936212], [74.3774371, 14.4935551], [74.377663, 14.4935461], [74.3779849, 14.4934375], [74.3782402, 14.4934621], [74.3784169, 14.4934721], [74.3786518, 14.4930035], [74.3789608, 14.4930137], [74.3790659, 14.4923539], [74.3787375, 14.4921041], [74.3785519, 14.4917615], [74.3785091, 14.4914117], [74.3782235, 14.4912047], [74.3780951, 14.4908121], [74.3782878, 14.4902053], [74.378427, 14.4902277], [74.3787339, 14.4902285], [74.378796, 14.4899655], [74.3790369, 14.4897344], [74.3793871, 14.4894558], [74.379694, 14.4891631], [74.3799137, 14.4887607], [74.3800559, 14.4885394], [74.3803018, 14.4884156], [74.3804787, 14.4883491], [74.3806459, 14.4882826], [74.3807349, 14.488034], [74.3807158, 14.4878426], [74.3804396, 14.4876662], [74.3803084, 14.4873699], [74.3803084, 14.4870629], [74.3803013, 14.4868416], [74.3803915, 14.4863737], [74.3804659, 14.4861227], [74.3803188, 14.4860386], [74.3802208, 14.4859546], [74.3800005, 14.4857028], [74.3792636, 14.4858325], [74.378969, 14.4858317], [74.3787308, 14.4857994], [74.3784596, 14.4856067], [74.3782954, 14.4853925], [74.3778314, 14.4851284], [74.3775101, 14.4848928], [74.3772389, 14.4848572], [74.3769676, 14.4850356], [74.3767069, 14.4852697], [74.3767454, 14.4855473], [74.3769703, 14.4859115], [74.3770678, 14.4861605], [74.377039, 14.4864847], [74.3768166, 14.4865039], [74.376659, 14.486615], [74.376414, 14.4865028], [74.3761687, 14.4864256], [74.37596, 14.486338], [74.3757023, 14.4862895], [74.3756165, 14.4862534], [74.375162, 14.4863479], [74.3747814, 14.4863827], [74.3745644, 14.4864276], [74.3744607, 14.4861467], [74.3744756, 14.4859992], [74.3746176, 14.4858643], [74.3748075, 14.4858446], [74.3748693, 14.4856892], [74.3750019, 14.4856657], [74.3752663, 14.4848928], [74.3753496, 14.4845121], [74.3753496, 14.4837388], [74.3755281, 14.4833819], [74.3756708, 14.4827037], [74.3760277, 14.4819542], [74.3762895, 14.481514], [74.3763609, 14.4808716], [74.3765155, 14.4801577], [74.3768011, 14.4795338], [74.3768772, 14.4792197], [74.3770105, 14.478801], [74.3774388, 14.4785059], [74.3777148, 14.4783251], [74.3778766, 14.4777159], [74.3782287, 14.4770021], [74.378381, 14.4764025], [74.3787903, 14.4759646], [74.3792852, 14.4760313], [74.3798277, 14.4761169], [74.380218, 14.4762787], [74.3802656, 14.4765452], [74.380237, 14.4766309], [74.380218, 14.476945], [74.380218, 14.4772781], [74.3803322, 14.477497], [74.3808081, 14.4775446], [74.3812649, 14.477516], [74.3817218, 14.477516], [74.3821311, 14.477478], [74.382369, 14.4774113], [74.3824642, 14.47724], [74.3824261, 14.4770782], [74.3822643, 14.476707], [74.3824166, 14.4765833], [74.3825784, 14.4763549], [74.3824452, 14.4760408], [74.3824261, 14.4755554], [74.3823714, 14.4751161], [74.3823357, 14.4748663], [74.3821929, 14.4742119], [74.3820859, 14.4738669], [74.3819074, 14.4736052], [74.3815862, 14.4734148], [74.3812292, 14.4732958], [74.3809913, 14.4730936], [74.3807296, 14.4728318], [74.380444, 14.4726534], [74.3803607, 14.4722489], [74.3802894, 14.4720347], [74.3800633, 14.4717849], [74.3798254, 14.4715945], [74.3797064, 14.4711662], [74.379635, 14.4708212], [74.3793971, 14.4706189], [74.3792305, 14.4702977], [74.3792067, 14.4699765], [74.3791353, 14.4696315], [74.3791472, 14.4692864], [74.3791234, 14.4689295], [74.3791353, 14.4685488], [74.3793614, 14.4683228], [74.3793257, 14.4680729], [74.3793019, 14.4675851], [74.3798016, 14.4675256], [74.3800276, 14.4675018], [74.3800552, 14.4673372], [74.3802123, 14.466966], [74.3804692, 14.4667804], [74.3807405, 14.4668375], [74.3810403, 14.4667661], [74.3810546, 14.4663521], [74.3812402, 14.4658381], [74.3811688, 14.4655526], [74.3810974, 14.4652956], [74.3813401, 14.4650386], [74.3819398, 14.4649815], [74.382211, 14.4647388], [74.3822681, 14.4644533], [74.3824394, 14.4640821], [74.3826536, 14.4639108], [74.3829106, 14.463768], [74.3829391, 14.4635824], [74.3831818, 14.4632826], [74.3836672, 14.4631113], [74.3841527, 14.4635538], [74.3842383, 14.4638537], [74.3845381, 14.4639393], [74.3847951, 14.4639536], [74.385252, 14.4636681], [74.3855946, 14.4636681], [74.3859372, 14.4635396], [74.3858373, 14.4633254], [74.3857088, 14.4632398], [74.385923, 14.462997], [74.3862942, 14.4628543], [74.3866225, 14.4627543], [74.3866511, 14.4625973], [74.3865369, 14.4622975], [74.3864512, 14.4619406], [74.3863798, 14.4615265], [74.3862228, 14.4610126], [74.3859515, 14.4604843], [74.3853805, 14.4599561], [74.3851818, 14.4595444], [74.385039, 14.4593303], [74.3847677, 14.4588449], [74.3847677, 14.4585451], [74.3848534, 14.4583166], [74.3849533, 14.4580597], [74.3848248, 14.4578883], [74.3845821, 14.457817], [74.3843537, 14.4577599], [74.3841681, 14.4577313], [74.383854, 14.4575743], [74.3838398, 14.4574315], [74.3840396, 14.4570746], [74.3839682, 14.4561609], [74.3840111, 14.4551615], [74.3842395, 14.4541764], [74.3845679, 14.4540051], [74.3848677, 14.4539765], [74.3853388, 14.4538052], [74.3857814, 14.4535197], [74.3859955, 14.4535482], [74.3864524, 14.4536767], [74.3869664, 14.4536481], [74.387417, 14.4539008], [74.3879478, 14.4536916], [74.3883062, 14.4532542], [74.3889127, 14.4527373], [74.3897574, 14.4526821], [74.3902193, 14.4531686], [74.3907047, 14.45314], [74.3911456, 14.4535461], [74.3913661, 14.4536902], [74.3916976, 14.4536767], [74.3921038, 14.4534398], [74.3925846, 14.4527395], [74.3929307, 14.4527404], [74.3938884, 14.4526352], [74.3944902, 14.4521491], [74.3947329, 14.4520634], [74.3952526, 14.4519785], [74.3959158, 14.4518025], [74.3963084, 14.4517906], [74.3965821, 14.4518263], [74.3969329, 14.4521291], [74.3972567, 14.4522304], [74.3977433, 14.4520378], [74.3979939, 14.4519667], [74.3983547, 14.4519748], [74.3985533, 14.4520543], [74.3987378, 14.4519184], [74.3989221, 14.4518543], [74.3992689, 14.4516111], [74.3994603, 14.4516332], [74.3995705, 14.4517267], [74.3997398, 14.4517563], [74.399894, 14.4519074], [74.4000044, 14.4519091], [74.4000323, 14.4519095], [74.400143, 14.4524247], [74.4002594, 14.4529633], [74.4004573, 14.4533083], [74.4011268, 14.4536465], [74.4019121, 14.4537179], [74.4022333, 14.4532539], [74.4024236, 14.4524925], [74.4024117, 14.4518025], [74.402128, 14.4508299], [74.4021185, 14.4503064], [74.4021185, 14.4495545], [74.4022422, 14.4491357], [74.4025277, 14.4486027], [74.4029483, 14.4479252], [74.4032921, 14.4478686], [74.4038423, 14.4477648], [74.4041666, 14.4476508], [74.4046182, 14.447671], [74.4048832, 14.4477291], [74.4051086, 14.4479019], [74.4053182, 14.4479377], [74.4054661, 14.4489224], [74.4055924, 14.4494299], [74.4057686, 14.4496504], [74.406014, 14.4496702], [74.4062201, 14.449709], [74.4064261, 14.449786], [74.4065274, 14.4498987], [74.4065823, 14.4500364], [74.4066801, 14.4501862], [74.4067349, 14.4503657], [74.4068018, 14.4505633], [74.4069298, 14.4508985], [74.4070459, 14.4511141], [74.4072535, 14.4514854], [74.4075107, 14.4517133], [74.4077681, 14.4518455], [74.4081131, 14.4517478], [74.4085487, 14.4517908], [74.408966, 14.4518038], [74.4093215, 14.4519901], [74.409849, 14.4520811], [74.410389, 14.4521303], [74.4105178, 14.4521366], [74.4107257, 14.4524242], [74.4109358, 14.452467], [74.4111428, 14.4525005], [74.4112206, 14.4525765], [74.4112891, 14.4526282], [74.4115097, 14.4527492], [74.4116121, 14.4530078], [74.4116659, 14.4531374], [74.4116901, 14.4532185], [74.4117978, 14.4533527], [74.4118417, 14.4534485], [74.4118857, 14.4535108], [74.4118903, 14.4536256], [74.411885, 14.4537787], [74.4119582, 14.4539607], [74.411953, 14.4540755], [74.4120161, 14.4543197], [74.4121124, 14.4544423], [74.4120919, 14.4547772], [74.4121103, 14.4552461], [74.4121384, 14.4557437], [74.4121668, 14.4561648], [74.4122249, 14.4564616], [74.4122048, 14.4566242], [74.4121747, 14.4568825], [74.4120269, 14.4570639], [74.4119184, 14.4572646], [74.4119863, 14.4575805], [74.4119367, 14.4577814], [74.4120344, 14.4579443], [74.4120927, 14.4582123], [74.412052, 14.4587289], [74.4121216, 14.4593801], [74.4121692, 14.4596061], [74.4124502, 14.4598591], [74.4127736, 14.4599716], [74.4128817, 14.4602475], [74.4130028, 14.4606977], [74.4128243, 14.4608524], [74.4125983, 14.4611022], [74.4122172, 14.4614988], [74.4120127, 14.4621307], [74.4118606, 14.4624347], [74.4117649, 14.4626602], [74.4118368, 14.462982], [74.4116584, 14.4631842], [74.4113253, 14.4633627], [74.4109385, 14.4632538], [74.4107251, 14.4631671], [74.4104806, 14.4632675], [74.4102307, 14.4633746], [74.4099452, 14.4635412], [74.4096121, 14.4635887], [74.4094455, 14.4637553], [74.4090529, 14.4642312], [74.4088139, 14.4644014], [74.4087615, 14.464717], [74.4087386, 14.4650255], [74.4087787, 14.465856], [74.4082166, 14.4661909], [74.4082405, 14.4664661], [74.408277, 14.4665738], [74.4083254, 14.4668371], [74.4084716, 14.4672561], [74.4085442, 14.4676509], [74.4085672, 14.4679301], [74.4084198, 14.46798], [74.408483, 14.468211], [74.4084596, 14.4685024], [74.4080951, 14.4686508], [74.4077953, 14.468865], [74.4074399, 14.4690456], [74.4072826, 14.4690978], [74.4073798, 14.4694617], [74.4075193, 14.4697306], [74.4074384, 14.4699072], [74.4071956, 14.4699928], [74.4067245, 14.4702212], [74.4071121, 14.4707548], [74.4072681, 14.471157], [74.4073023, 14.4715748], [74.4072943, 14.4717901], [74.4069182, 14.4719901], [74.4069472, 14.4721409], [74.407292, 14.4727869], [74.4070928, 14.4729443], [74.4072098, 14.4732388], [74.4073491, 14.4734975], [74.4075249, 14.4738424], [74.4077154, 14.4742161], [74.4078911, 14.4746113], [74.4082153, 14.4745905], [74.4087607, 14.474434], [74.4097796, 14.474403], [74.4104078, 14.4744601], [74.4113072, 14.4741032], [74.4127196, 14.4740266], [74.413881, 14.4741762], [74.4147495, 14.4741643], [74.4150231, 14.4742475], [74.4150469, 14.4745569], [74.415035, 14.4747472], [74.4149587, 14.4753336], [74.4150993, 14.4755732], [74.4153386, 14.4755917], [74.4155902, 14.4755983], [74.4158603, 14.475587], [74.4160877, 14.475468], [74.4161922, 14.4754025], [74.4164254, 14.475415], [74.4167079, 14.4753679], [74.4167938, 14.475386], [74.4169471, 14.4754342], [74.4170081, 14.4755839], [74.4172352, 14.4755665], [74.4176406, 14.4754419], [74.417801, 14.4754813], [74.4178991, 14.4755174], [74.4180085, 14.4755804], [74.4181307, 14.475796], [74.4183146, 14.4758862], [74.4185216, 14.4758758], [74.4187497, 14.4758831], [74.4189106, 14.4760511], [74.4189251, 14.4761373], [74.4190129, 14.4763385], [74.4191745, 14.4765254], [74.4191444, 14.4767837], [74.4191145, 14.4769559], [74.4190845, 14.4771281], [74.4190252, 14.4773001], [74.4189951, 14.4775297], [74.4190037, 14.4776883], [74.4187578, 14.4777979], [74.418763, 14.4780828], [74.4187616, 14.4782121], [74.4186218, 14.4785776], [74.4183452, 14.4784976], [74.4180002, 14.4785333], [74.4176435, 14.4785145], [74.4175481, 14.4788069], [74.4169087, 14.4788202], [74.4165649, 14.4788433], [74.4164415, 14.4790702], [74.4155727, 14.4789615], [74.4154102, 14.4791405], [74.4154687, 14.4793129], [74.4157555, 14.479493], [74.4162556, 14.4797454], [74.417044, 14.4799903], [74.41778, 14.4802217], [74.4183492, 14.4803571], [74.4188989, 14.4804541], [74.4194486, 14.4805608], [74.4198708, 14.4805618], [74.4201794, 14.4806156], [74.4204151, 14.4806162], [74.4206609, 14.4805307], [74.4210245, 14.4804455], [74.4212705, 14.4802356], [74.4218283, 14.4799208], [74.4226821, 14.4795736], [74.4232822, 14.479154], [74.4235818, 14.4789016], [74.4236909, 14.4786079], [74.4258324, 14.4771088], [74.4268794, 14.476038], [74.4276884, 14.4751814], [74.4299727, 14.4734682], [74.4308055, 14.4723261], [74.4313528, 14.4711839], [74.4328994, 14.4693993], [74.4332801, 14.4683762], [74.4335895, 14.4678289], [74.433756, 14.4668057], [74.4339702, 14.4658539], [74.4340511, 14.4643834], [74.4340987, 14.463503], [74.4341701, 14.4621705], [74.4343842, 14.4604097], [74.4345984, 14.4583158], [74.4346222, 14.4565074], [74.4341701, 14.4539852], [74.4341701, 14.4524147], [74.4341463, 14.4515581], [74.4340511, 14.4503446], [74.4339083, 14.4495594], [74.4336704, 14.4489645], [74.4328614, 14.4482031], [74.4320285, 14.4477034], [74.4307912, 14.4469658], [74.4304581, 14.4455143], [74.4313147, 14.4437535], [74.4321713, 14.4427065], [74.4330517, 14.4421831], [74.4348125, 14.4415882], [74.4362878, 14.4416358], [74.4379349, 14.4419228], [74.4398197, 14.4420852], [74.441356, 14.4424448], [74.4430692, 14.4434442], [74.4439072, 14.4443796], [74.4444252, 14.444826], [74.4447994, 14.4454436], [74.4454013, 14.4462201], [74.445716, 14.4466468], [74.446148, 14.4474385], [74.4469607, 14.4483494], [74.4476477, 14.4489802], [74.4489041, 14.4498654], [74.4493305, 14.4501922], [74.4498321, 14.4502794], [74.4504346, 14.4503957], [74.4512455, 14.4502508], [74.4521306, 14.4499938], [74.4530634, 14.449518], [74.4539771, 14.4488898], [74.4547956, 14.4480903], [74.456071, 14.4472908], [74.4570228, 14.445825], [74.457427, 14.4451364], [74.4581046, 14.4447861], [74.4585457, 14.4446448], [74.4591358, 14.4448732], [74.4598015, 14.4455459], [74.4601827, 14.4456727], [74.4607538, 14.4457679], [74.4612297, 14.445806], [74.4617627, 14.4459012], [74.4620863, 14.4460344], [74.4624289, 14.4462057], [74.4623465, 14.4464839], [74.4622247, 14.4464222], [74.4620383, 14.4463261], [74.4618324, 14.4462108], [74.46142, 14.4460154], [74.4610393, 14.4460154], [74.4605365, 14.4461122], [74.4608984, 14.4467254], [74.461382, 14.4474621], [74.4615818, 14.4483441], [74.4617866, 14.4489282], [74.4621055, 14.4499051], [74.4626383, 14.451117], [74.4633764, 14.4522428], [74.4640396, 14.4529989], [74.4647872, 14.4535856], [74.4661598, 14.454469], [74.4681027, 14.4550284], [74.4697313, 14.4556253], [74.4708079, 14.4559996], [74.4709543, 14.4563444], [74.4708506, 14.4566026], [74.4705913, 14.4569302], [74.4700754, 14.4569675], [74.4693476, 14.4568719], [74.468464, 14.4567981], [74.4671879, 14.4567134], [74.4656079, 14.4561995], [74.4648845, 14.4556855], [74.4642754, 14.4552287], [74.4636091, 14.4547337], [74.4632094, 14.4541246], [74.4626003, 14.4532299], [74.4617627, 14.4524875], [74.4613629, 14.4517071], [74.4610584, 14.4510408], [74.4605825, 14.4501081], [74.4600875, 14.4480141], [74.45925, 14.4471004], [74.458479, 14.4464047], [74.4582696, 14.4461572], [74.457946, 14.4462143], [74.4577274, 14.4464598], [74.4575272, 14.4472803], [74.4572798, 14.4477943], [74.4569752, 14.4485367], [74.4567087, 14.4490316], [74.4564612, 14.4495646], [74.4557429, 14.450578], [74.4554352, 14.4509481], [74.4551899, 14.4512852], [74.4547758, 14.4517793], [74.4542721, 14.4522372], [74.4540941, 14.4522547], [74.453663, 14.4525151], [74.453149, 14.4526864], [74.4523305, 14.4528197], [74.4517214, 14.4526293], [74.4506934, 14.4521534], [74.4501033, 14.4517537], [74.4494371, 14.4515824], [74.4486947, 14.451373], [74.4481427, 14.4509161], [74.4472099, 14.4503831], [74.4465246, 14.4496217], [74.4462002, 14.449374], [74.4456173, 14.44891], [74.4448202, 14.4481367], [74.4436542, 14.4473871], [74.4427738, 14.4467923], [74.440323, 14.4454717], [74.4396567, 14.4449125], [74.4380506, 14.4446151], [74.4371702, 14.4444009], [74.4364801, 14.4442225], [74.4356235, 14.4442582], [74.4351238, 14.4444009], [74.4347312, 14.4444723], [74.4341245, 14.4446389], [74.4336962, 14.4446984], [74.4332084, 14.4450315], [74.4329248, 14.4454065], [74.4327249, 14.4456492], [74.4325536, 14.4460204], [74.4325678, 14.4465058], [74.4327965, 14.4470202], [74.4336642, 14.4475246], [74.434252, 14.4480571], [74.4346665, 14.4483618], [74.4351805, 14.4489471], [74.4357087, 14.4495039], [74.4360085, 14.4499322], [74.4361544, 14.4502155], [74.4364194, 14.4512251], [74.4365748, 14.4519144], [74.4366172, 14.4523528], [74.4367556, 14.4529733], [74.4366569, 14.4532027], [74.4366951, 14.4536047], [74.4366747, 14.4539299], [74.436868, 14.4551552], [74.4371596, 14.4564133], [74.4370454, 14.4571367], [74.4370073, 14.4579742], [74.4369883, 14.4587166], [74.4369122, 14.4595923], [74.4367979, 14.4610961], [74.4367408, 14.4618956], [74.436534, 14.4626191], [74.4364731, 14.4634036], [74.4365095, 14.4645519], [74.436547, 14.4652792], [74.4365823, 14.4668294], [74.4366593, 14.4675267], [74.4365992, 14.4679954], [74.4365767, 14.4686419], [74.436292, 14.4690855], [74.4361241, 14.469487], [74.436074, 14.4698696], [74.4361232, 14.4703518], [74.4359457, 14.4706576], [74.4359054, 14.4710594], [74.4356646, 14.4712299], [74.435615, 14.471445], [74.4353191, 14.4719586], [74.4351217, 14.4723409], [74.4351748, 14.4726269], [74.4349383, 14.4729325], [74.4346624, 14.4733146], [74.4343275, 14.4736966], [74.4342093, 14.4738494], [74.434071, 14.4741552], [74.4339526, 14.4743655], [74.4337776, 14.4746403], [74.4335397, 14.4748307], [74.433331, 14.4750098], [74.432957, 14.4753247], [74.4326618, 14.4755727], [74.432457, 14.4758182], [74.4321173, 14.4759817], [74.4316729, 14.4763191], [74.4313184, 14.476713], [74.43089, 14.4771784], [74.4303215, 14.4777296], [74.4298038, 14.4782248], [74.4295613, 14.4783306], [74.4293108, 14.4783443], [74.4290821, 14.4784945], [74.4286914, 14.4786227], [74.4282789, 14.4786504], [74.4279915, 14.4787215], [74.4277261, 14.4788141], [74.4274238, 14.4789282], [74.427097, 14.4792747], [74.4265948, 14.4797902], [74.4260634, 14.4802338], [74.4256354, 14.4805198], [74.4253404, 14.480677], [74.4248411, 14.4807878], [74.4244869, 14.4810453], [74.4241621, 14.4813411], [74.4237989, 14.4815136], [74.4232278, 14.4817563], [74.4228548, 14.4817972], [74.422373, 14.4820257], [74.4219896, 14.4821683], [74.4215962, 14.482397], [74.4209177, 14.4827302], [74.4207604, 14.4827872], [74.4209362, 14.4831895], [74.4208035, 14.4837892], [74.4203625, 14.4841415], [74.419977, 14.4846269], [74.4197914, 14.4852123], [74.4196914, 14.4856548], [74.4199341, 14.485869], [74.4205052, 14.4856548], [74.4210763, 14.4852551], [74.4212762, 14.4852408], [74.4214332, 14.4853836], [74.4213904, 14.4857833], [74.4217868, 14.4860017], [74.4219329, 14.4861831], [74.4221884, 14.4864141], [74.422433, 14.4867688], [74.4224514, 14.4872664], [74.4223133, 14.4874861], [74.4222338, 14.4878687], [74.4220761, 14.4880597], [74.4218893, 14.4881453], [74.4216902, 14.4883246], [74.421319, 14.4882247], [74.4206908, 14.4882104], [74.4202625, 14.4882675], [74.4194487, 14.4882532], [74.4190633, 14.4881247], [74.4187251, 14.4877978], [74.418345, 14.4876174], [74.4181131, 14.4871384], [74.4183358, 14.4864453], [74.4186492, 14.4854121], [74.418535, 14.4849838], [74.4185921, 14.484527], [74.418378, 14.4842557], [74.4183066, 14.4839131], [74.4184854, 14.4833237], [74.4184489, 14.48318], [74.4179497, 14.4831564], [74.4176356, 14.483085], [74.4172929, 14.4829708], [74.4167817, 14.4827849], [74.4160697, 14.4827712], [74.4154554, 14.4829849], [74.414767, 14.483354], [74.4143243, 14.4836519], [74.4137214, 14.4841648], [74.4136346, 14.4845114], [74.4132631, 14.4851469], [74.4130157, 14.4858519], [74.4128243, 14.4863119], [74.4125409, 14.4867], [74.4124281, 14.4875908], [74.4122897, 14.4878172], [74.4120756, 14.4879599], [74.4116479, 14.48784], [74.411464, 14.4877319], [74.4112983, 14.4877135], [74.4110773, 14.4877249], [74.4108858, 14.4876982], [74.4103505, 14.4871866], [74.4103148, 14.4868654], [74.4101244, 14.486675], [74.4098984, 14.4866512], [74.4096604, 14.4866512], [74.4095533, 14.4866869], [74.409018, 14.4869249], [74.4083517, 14.4871152], [74.4076379, 14.487496], [74.407043, 14.4878529], [74.4066623, 14.4882812], [74.4061388, 14.4886738], [74.4058295, 14.4889474], [74.4054556, 14.4892309], [74.4052584, 14.4895055], [74.4049543, 14.4899366], [74.4050413, 14.4902478], [74.4049373, 14.4906015], [74.4046959, 14.4908689], [74.4046758, 14.4910363], [74.4045872, 14.4911269], [74.4044935, 14.4912989], [74.4042815, 14.491595], [74.4041386, 14.4917812], [74.4041038, 14.4919534], [74.4043881, 14.4921263], [74.4045548, 14.4922368], [74.4044453, 14.4926165], [74.4041409, 14.4927835], [74.4038303, 14.4932564], [74.4034364, 14.4938348], [74.4030176, 14.494501], [74.4024847, 14.4951284], [74.4021801, 14.4958906], [74.4020548, 14.4961225], [74.4019804, 14.496576], [74.4018123, 14.4968299], [74.4018113, 14.49715], [74.4013085, 14.4972317], [74.4008213, 14.4974185], [74.4006005, 14.4973821], [74.4000602, 14.4974286], [74.3996187, 14.497248], [74.3994034, 14.4975447], [74.3993239, 14.4978985], [74.3992833, 14.4983864], [74.3990669, 14.4985103], [74.3987129, 14.4986912], [74.3986327, 14.4992651], [74.3987201, 14.4996481], [74.3992308, 14.4996398], [74.3995548, 14.4996789], [74.3996375, 14.5000685], [74.3995179, 14.5006997], [74.3992665, 14.5010722], [74.3989786, 14.5013083], [74.398669, 14.5014008], [74.3981714, 14.5015031], [74.3979088, 14.5014024], [74.3976654, 14.5012761], [74.397563, 14.5010103], [74.3973716, 14.5009667], [74.3972604, 14.5012176], [74.3970828, 14.5015329], [74.3968962, 14.5017446], [74.3967481, 14.5020312], [74.3966982, 14.5023277], [74.3964433, 14.5030851], [74.3963077, 14.5032881], [74.3960268, 14.5035974], [74.3957056, 14.5037997], [74.3952059, 14.5039186], [74.3945779, 14.5039159], [74.3942951, 14.5040945], [74.3941593, 14.5043573], [74.3940043, 14.504918], [74.3937663, 14.5054772], [74.3935403, 14.5058341], [74.3931209, 14.5060961], [74.3929439, 14.5061818], [74.3927865, 14.5062771], [74.3925445, 14.5063514], [74.3923723, 14.5064586], [74.3922243, 14.5066975], [74.3921252, 14.5074332], [74.3922915, 14.5076824], [74.3925409, 14.5078923], [74.3925938, 14.5084965], [74.3926326, 14.5086784], [74.392632, 14.5088889], [74.3927095, 14.5093005], [74.39261, 14.5097596], [74.3927424, 14.5103229], [74.3928635, 14.5109093], [74.3929357, 14.5114477], [74.3930334, 14.5116633], [74.3932413, 14.5119628], [74.3934739, 14.5121787], [74.3941287, 14.512624], [74.3943783, 14.5129476], [74.3947725, 14.5132298], [74.394964, 14.5137788], [74.395168, 14.5141753], [74.3951668, 14.5145082], [74.3950846, 14.5149458], [74.3951573, 14.5152833], [74.3952716, 14.5156914], [74.3954032, 14.5160793], [74.3955481, 14.5161261], [74.3957623, 14.5164402], [74.395754, 14.5170849], [74.3958265, 14.51753], [74.3960764, 14.517768], [74.396419, 14.5180678], [74.3965016, 14.5184934], [74.3969615, 14.5188815], [74.3972214, 14.5192847], [74.397504, 14.5195954], [74.3975441, 14.5198022], [74.3976552, 14.5201515], [74.3975345, 14.5204359], [74.3974725, 14.5206749], [74.3973739, 14.5208182], [74.3972918, 14.5212094], [74.3976794, 14.5213333], [74.3977646, 14.5216086], [74.3976775, 14.5220509], [74.3974931, 14.5221462], [74.397249, 14.522166], [74.3971347, 14.5223159], [74.3969848, 14.5224658], [74.3968064, 14.5225514], [74.3966565, 14.5227013], [74.396331, 14.5229201], [74.3964409, 14.52315], [74.3966208, 14.5232438], [74.3966136, 14.5233795], [74.3965351, 14.5236507], [74.3964673, 14.5239267], [74.3963602, 14.524117], [74.3961342, 14.5246524], [74.3960592, 14.5251006], [74.3960152, 14.5254713], [74.396039, 14.5258897], [74.3961461, 14.5261872], [74.3960068, 14.5263205], [74.3960184, 14.5265717], [74.3958418, 14.5267223], [74.3957158, 14.5270162], [74.3956858, 14.527495], [74.3956238, 14.5276981], [74.3957959, 14.5276507], [74.3962369, 14.5277575], [74.3960887, 14.5283452], [74.3960143, 14.5286082], [74.3959644, 14.528907], [74.3962467, 14.5289197], [74.3963694, 14.5289679], [74.3963689, 14.5291593], [74.3964666, 14.5293509], [74.3965891, 14.5294469], [74.3966133, 14.5295905], [74.3966371, 14.5298656], [74.3967102, 14.5300572], [74.3966166, 14.5303795], [74.3962478, 14.530558], [74.39576, 14.530665], [74.395534, 14.5306888], [74.3951295, 14.5309149], [74.3948558, 14.5310696], [74.3945346, 14.531129], [74.3941658, 14.531129], [74.3935242, 14.5311276], [74.3932673, 14.5312703], [74.3928818, 14.5314702], [74.3926534, 14.5315987], [74.392482, 14.5316558], [74.3921394, 14.5318557], [74.3917968, 14.5319413], [74.3914827, 14.532184], [74.391158, 14.5322771], [74.3910397, 14.5324395], [74.3909021, 14.5324582], [74.3906268, 14.5325628], [74.3901011, 14.532614], [74.3897821, 14.5325414], [74.3893007, 14.5325785], [74.3889953, 14.5328078], [74.3887468, 14.5327456], [74.3881577, 14.5326484], [74.3876861, 14.5326854], [74.3872344, 14.532646], [74.3868417, 14.5325492], [74.3860557, 14.5326237], [74.3857606, 14.5327569], [74.3854067, 14.53289], [74.3851705, 14.5330233], [74.3848795, 14.5332009], [74.3845209, 14.5335], [74.384402, 14.5338633], [74.3843415, 14.5344564], [74.3843195, 14.5352792], [74.3836829, 14.5355518], [74.3834858, 14.5357617], [74.3834658, 14.5359052], [74.3834258, 14.5361635], [74.3832876, 14.5363832], [74.3831892, 14.5364786], [74.3830414, 14.5366409], [74.3829423, 14.5369277], [74.3829996, 14.5375402], [74.3830084, 14.5379134], [74.3830562, 14.5383633], [74.3831731, 14.5387367], [74.3833192, 14.5388656], [74.3834905, 14.5394509], [74.383719, 14.5400791], [74.3838189, 14.5405074], [74.3837903, 14.5408358], [74.3838046, 14.5411927], [74.3839617, 14.5414497], [74.3841615, 14.5417495], [74.3840664, 14.5420159], [74.384046, 14.5423125], [74.3839467, 14.5426854], [74.384015, 14.5428482], [74.3840243, 14.5430492], [74.3840336, 14.543231], [74.3841415, 14.5433079], [74.3842194, 14.5435377], [74.3845038, 14.5437011], [74.3851907, 14.5439804], [74.3857356, 14.5440823], [74.3860447, 14.544198], [74.3864274, 14.5443425], [74.386957, 14.5446453], [74.3874134, 14.54479], [74.3877022, 14.544719], [74.3879592, 14.5449617], [74.3879877, 14.5451331], [74.3885159, 14.5453044], [74.3885988, 14.5455442], [74.3885845, 14.5457727], [74.3883681, 14.5459264], [74.3882494, 14.5462275], [74.388042, 14.5466001], [74.3878939, 14.5469011], [74.387863, 14.5474177], [74.3880089, 14.5479348], [74.3881257, 14.548337], [74.3881677, 14.5491265], [74.3884824, 14.5495453], [74.3884138, 14.5499159], [74.3885323, 14.5501386], [74.3887898, 14.5502828], [74.3889231, 14.5504507], [74.3887531, 14.5507646], [74.3885944, 14.551004], [74.3885117, 14.5511719], [74.3884668, 14.5513943], [74.388422, 14.5516166], [74.3884288, 14.5518248], [74.3884136, 14.5519898], [74.3883912, 14.5521117], [74.3883567, 14.5522736], [74.3883015, 14.5525636], [74.3880979, 14.5525099], [74.387678, 14.5524801], [74.3873759, 14.552508], [74.3870283, 14.5529396], [74.3866293, 14.5529187], [74.386216, 14.5528971], [74.3857903, 14.5530492], [74.3855126, 14.5533451], [74.3851436, 14.5535535], [74.3849466, 14.5537623], [74.3847805, 14.5538575], [74.3845902, 14.5538749], [74.3845039, 14.5539764], [74.3844362, 14.554048], [74.3842014, 14.5545617], [74.3841272, 14.5547588], [74.3841494, 14.5551507], [74.3840136, 14.5554015], [74.3837555, 14.5554726], [74.3835951, 14.5557473], [74.3833859, 14.5559381], [74.3835565, 14.556405], [74.3834334, 14.5565004], [74.3833962, 14.5566319], [74.383224, 14.556739], [74.383113, 14.5569062], [74.382929, 14.5568459], [74.3826722, 14.5564505], [74.3825376, 14.5562708], [74.3824274, 14.5561628], [74.3821205, 14.5561261], [74.3817027, 14.5562327], [74.3813709, 14.5563395], [74.3812473, 14.5566142], [74.3812462, 14.5570209], [74.3811843, 14.5571762], [74.3811471, 14.5573077], [74.3812569, 14.5575831], [74.3814538, 14.5574042], [74.3816868, 14.5575244], [74.3816988, 14.557644], [74.38177, 14.5578101], [74.3818799, 14.5580401], [74.3819679, 14.5582054], [74.3820117, 14.558349], [74.3820849, 14.5585214], [74.3820475, 14.5586936], [74.3820468, 14.5589591], [74.3820093, 14.5591886], [74.3820825, 14.5593826], [74.3820526, 14.559526], [74.3820302, 14.559648], [74.3819383, 14.5598095], [74.3815938, 14.5600478], [74.3814314, 14.560364], [74.3815786, 14.5606685], [74.381548, 14.5610702], [74.3815577, 14.561501], [74.3816423, 14.5619796], [74.3816785, 14.5622189], [74.381555, 14.5624817], [74.3814054, 14.5629084], [74.3813319, 14.5632227], [74.3813054, 14.5635492], [74.3813439, 14.563846], [74.3814186, 14.5641408], [74.3815424, 14.5643978], [74.3815519, 14.564731], [74.3814948, 14.5649879], [74.3814567, 14.5652164], [74.3813235, 14.5654353], [74.3811236, 14.5655019], [74.3811323, 14.5657304], [74.3809862, 14.5659564], [74.3809782, 14.5662003], [74.3810139, 14.566588], [74.3808144, 14.5667955], [74.3807183, 14.5669101], [74.3807324, 14.5671326], [74.3808648, 14.5672263], [74.3813076, 14.5673228], [74.3814545, 14.5674954], [74.3816678, 14.567618], [74.3819768, 14.5677839], [74.3821987, 14.5674759], [74.3824497, 14.567333], [74.3825897, 14.5673334], [74.3826999, 14.567427], [74.3827955, 14.5675205], [74.3828907, 14.5677289], [74.3830169, 14.5677081], [74.3833214, 14.5679555], [74.3835482, 14.5680861], [74.3836365, 14.5682352], [74.3836142, 14.5682782], [74.3835035, 14.5683353], [74.3834664, 14.5684285], [74.383422, 14.5685145], [74.3833698, 14.568744], [74.3831988, 14.5692961], [74.3833014, 14.569483], [74.3834115, 14.5696555], [74.3834993, 14.5698495], [74.3835873, 14.5700292], [74.383631, 14.5701943], [74.3836304, 14.5704024], [74.383627, 14.5708984], [74.3835529, 14.5710609], [74.383567, 14.571281], [74.383586, 14.5715011], [74.3835951, 14.5717643], [74.3836143, 14.5719222], [74.3835595, 14.5721995], [74.3834267, 14.5722757], [74.3833134, 14.5723711], [74.3831563, 14.5723612], [74.3830091, 14.5722746], [74.3829013, 14.5722074], [74.3826709, 14.5720154], [74.3826321, 14.5718335], [74.3824016, 14.5717133], [74.382171, 14.5717294], [74.3819616, 14.5719292], [74.381933, 14.5721196], [74.3819045, 14.572348], [74.3817902, 14.5725193], [74.3816449, 14.572661], [74.3815192, 14.5728329], [74.3814379, 14.5729259], [74.3812824, 14.5731839], [74.3811491, 14.5734132], [74.3810532, 14.573456], [74.3809945, 14.5733912], [74.3808618, 14.5734124], [74.3806775, 14.5734191], [74.3805378, 14.5733183], [74.3803904, 14.573325], [74.3802286, 14.5732385], [74.3800224, 14.5731805], [74.3798748, 14.5732734], [74.3797937, 14.5732948], [74.3797356, 14.5732818], [74.3796228, 14.5732241], [74.3794658, 14.573152], [74.3792494, 14.5732231], [74.37893, 14.5732749], [74.3785808, 14.5734175], [74.3784819, 14.5736565], [74.3784519, 14.573843], [74.3784019, 14.5741538], [74.3783672, 14.5742829], [74.3782195, 14.5743782], [74.3780327, 14.5744208], [74.3778559, 14.5744346], [74.3776643, 14.5744102], [74.377419, 14.5743043], [74.3773061, 14.5742753], [74.3771834, 14.5742319], [74.3769235, 14.5740781], [74.376727, 14.5740728], [74.3765701, 14.5739863], [74.3763934, 14.5739475], [74.3761399, 14.5740803], [74.3758821, 14.5740825], [74.3756831, 14.574082], [74.3755875, 14.5740458], [74.3754182, 14.5739521], [74.3753003, 14.5739805], [74.3752412, 14.574009], [74.3749684, 14.5741016], [74.374747, 14.574223], [74.3744519, 14.5743299], [74.3741568, 14.5744511], [74.3738986, 14.5745796], [74.3736177, 14.5747703], [74.3734263, 14.5748079], [74.3732965, 14.574687], [74.3728801, 14.5745324], [74.3723328, 14.5747346], [74.3719402, 14.5746632], [74.371607, 14.5745205], [74.3714762, 14.5743896], [74.3712767, 14.5741204], [74.3711962, 14.5739336], [74.3710241, 14.5738304], [74.370917, 14.5735568], [74.3705363, 14.5735211], [74.3703284, 14.5733356], [74.3701269, 14.5730474], [74.3697736, 14.5728933], [74.3694991, 14.5726821], [74.3692834, 14.5725475], [74.3690125, 14.5722772], [74.3684404, 14.5718755], [74.368145, 14.5715787], [74.3677828, 14.5712911], [74.3674259, 14.5710056], [74.3669262, 14.57072], [74.3666764, 14.5705535], [74.3661248, 14.5703688], [74.3655057, 14.5704149], [74.3650805, 14.5700418], [74.3644621, 14.5698249], [74.363756, 14.5694067], [74.363374, 14.5689895], [74.3629919, 14.5686439], [74.3622408, 14.5684697], [74.361725, 14.5684826], [74.3612393, 14.568266], [74.360783, 14.5680782], [74.3604743, 14.567819], [74.360062, 14.567703], [74.3597266, 14.5676078], [74.3593949, 14.5674685], [74.3587974, 14.5664458], [74.3584598, 14.5659712], [74.3578821, 14.5655808], [74.3578235, 14.5653451], [74.357677, 14.5650625], [74.3574869, 14.5645596], [74.357094, 14.5644006], [74.3567017, 14.5643039], [74.356461, 14.5642984], [74.3562107, 14.5642356], [74.3560295, 14.5640293], [74.3559149, 14.5637805], [74.3557121, 14.5633969], [74.355644, 14.5631623], [74.35563, 14.5629039], [74.3557098, 14.5624975], [74.355711, 14.5620908], [74.3556628, 14.5617462], [74.3557788, 14.5616141], [74.3559078, 14.5615726], [74.3560414, 14.5613125], [74.3560776, 14.5609915], [74.3562652, 14.5606316], [74.3564579, 14.560259], [74.3566944, 14.5600156], [74.3569744, 14.5600164], [74.3571824, 14.5594285], [74.3573159, 14.5591131], [74.3576266, 14.5586834], [74.3578193, 14.558282], [74.3579231, 14.558067], [74.3580123, 14.5577946], [74.3581602, 14.557594], [74.3583818, 14.5574081], [74.3586623, 14.5572366], [74.358869, 14.557108], [74.3589878, 14.5567925], [74.3591075, 14.5561614], [74.3591829, 14.5555587], [74.3593906, 14.5550713], [74.3598058, 14.5541539], [74.3596888, 14.5535619], [74.3597042, 14.5531813], [74.35959, 14.5525246], [74.3592902, 14.5518108], [74.3591046, 14.5506401], [74.3588619, 14.5504402], [74.3588358, 14.5500845], [74.3588518, 14.5496539], [74.3588095, 14.5489936], [74.3589723, 14.5487244], [74.3594187, 14.5487413], [74.3597613, 14.5486556], [74.3596043, 14.5483986], [74.3594044, 14.5479989], [74.3592474, 14.5474992], [74.3588904, 14.5469852], [74.3584764, 14.5465998], [74.358148, 14.5463999], [74.3576341, 14.5464427], [74.3573486, 14.5465855], [74.3569488, 14.5467425], [74.3566347, 14.5466711], [74.3555782, 14.5464284], [74.3548358, 14.5461286], [74.3546429, 14.5450443], [74.3541907, 14.5451771], [74.3536795, 14.5452905], [74.353313, 14.5453892], [74.3529989, 14.5455748], [74.3525197, 14.545536], [74.3523424, 14.5456887], [74.35189, 14.5458596], [74.3515153, 14.5463562], [74.3512393, 14.5466616], [74.3510038, 14.5465844], [74.3504146, 14.5465253], [74.3502421, 14.546733], [74.3499589, 14.5469953], [74.3495657, 14.547078], [74.3494792, 14.5472691], [74.349582, 14.5479132], [74.3494107, 14.548313], [74.3492393, 14.5486128], [74.3487755, 14.5485589], [74.3485168, 14.5488572], [74.3483809, 14.5491199], [74.348183, 14.5496098], [74.3479366, 14.5498842], [74.3477763, 14.550099], [74.3475669, 14.5503257], [74.3474061, 14.5507319], [74.3472085, 14.551126], [74.3470247, 14.5517119], [74.346525, 14.5519832], [74.3462823, 14.5525257], [74.3462109, 14.5529825], [74.3460681, 14.5534537], [74.3458062, 14.5536156], [74.3455543, 14.5540885], [74.3454051, 14.5547053], [74.3450955, 14.5554442], [74.3451951, 14.5559821], [74.3450392, 14.5570659], [74.3451909, 14.5573887], [74.3456465, 14.5577918], [74.3463527, 14.5585325], [74.3467941, 14.5587849], [74.3471378, 14.5588218], [74.3473337, 14.5590017], [74.3477751, 14.5592434], [74.34768, 14.5596622], [74.3472612, 14.5603665], [74.3467091, 14.5607853], [74.3463651, 14.5611538], [74.3461366, 14.5616107], [74.3459616, 14.5620837], [74.3458992, 14.5624065], [74.3453386, 14.5628411], [74.3449008, 14.5628221], [74.3442916, 14.562803], [74.3437205, 14.5630695], [74.3432447, 14.563336], [74.3426355, 14.5637929], [74.3422929, 14.5641927], [74.3421596, 14.5647447], [74.3418741, 14.5651444], [74.3418741, 14.5655442], [74.3416837, 14.5658297], [74.3415885, 14.5663056], [74.341284, 14.566496], [74.3410936, 14.5671051], [74.3408842, 14.5676191], [74.3407319, 14.5682473], [74.3406558, 14.5685709], [74.3400551, 14.5687902], [74.3396125, 14.5687402], [74.3391556, 14.5689472], [74.3387487, 14.5691328], [74.3385132, 14.5690686], [74.3381848, 14.5690043], [74.3378493, 14.5688259], [74.3374281, 14.5685617], [74.3371283, 14.5684689], [74.3367714, 14.5684618], [74.3365287, 14.5683262], [74.3364145, 14.5681763], [74.3361789, 14.5678907], [74.3359576, 14.567648], [74.3355542, 14.5672003], [74.3356482, 14.5670514], [74.3358767, 14.5668943], [74.3359338, 14.5665374], [74.3357482, 14.5662804], [74.3354198, 14.5661662], [74.33512, 14.5660092], [74.3351057, 14.5654952], [74.3350343, 14.5649099], [74.3350629, 14.5643245], [74.3350201, 14.5638819], [74.3350201, 14.5632252], [74.3351914, 14.5626113], [74.3352628, 14.5620831], [74.335534, 14.5617119], [74.3359623, 14.561255], [74.3363621, 14.560841], [74.3365267, 14.5605164], [74.336655, 14.5602234], [74.3370613, 14.5598657], [74.336984, 14.5595452], [74.3372882, 14.559241], [74.3374404, 14.5589365], [74.3377069, 14.5587842], [74.3380115, 14.5583464], [74.3382399, 14.5577753], [74.3385445, 14.55709], [74.3386587, 14.5565189], [74.3388301, 14.5560811], [74.338677, 14.5553597], [74.3386859, 14.5548431], [74.3386794, 14.554556], [74.3385749, 14.5545017], [74.3384867, 14.5543436], [74.3383897, 14.5539415], [74.3383514, 14.5535969], [74.338391, 14.5535013], [74.338302, 14.553087], [74.3383958, 14.5528604], [74.3386482, 14.5528897], [74.3388541, 14.5530434], [74.3391098, 14.5529388], [74.3391401, 14.5526614], [74.3392292, 14.5524129], [74.3394264, 14.5521838], [74.3396818, 14.552175], [74.3399176, 14.5521565], [74.339997, 14.5519079], [74.3400371, 14.5516401], [74.3400772, 14.5513723], [74.3400763, 14.5510027]]], [[[74.3889231, 14.5504507], [74.3889302, 14.5504375], [74.388944, 14.550477], [74.3889231, 14.5504507]]], [[[74.3400731, 14.5510046], [74.3400928, 14.5509664], [74.3400763, 14.5510027], [74.3400731, 14.5510046]]]]}, "properties": {"name": "Aghanashini", "district": "Uttara Kannadakarnataka", "state": "Karnataka"}}, {"type": "Feature", "geometry": {"type": "Polygon", "coordinates": [[[76.5871494, 12.4206275], [76.5872932, 12.4204251], [76.588246, 12.4194553], [76.5888928, 12.4181522], [76.5900881, 12.4173637], [76.5910948, 12.4173322], [76.5919048, 12.4171967], [76.5923585, 12.4168239], [76.593094, 12.4162254], [76.5933808, 12.4156549], [76.5935115, 12.4154001], [76.5939508, 12.4157291], [76.5938349, 12.4161521], [76.5934067, 12.4168998], [76.5935532, 12.4173708], [76.5938186, 12.4182853], [76.5942413, 12.4187822], [76.5947003, 12.4197373], [76.59467, 12.420366], [76.5941516, 12.4212838], [76.5949021, 12.4231853], [76.5953873, 12.4242199], [76.595417, 12.4246641], [76.5949983, 12.4247769], [76.594127, 12.424673], [76.593272, 12.4246188], [76.5927491, 12.4245028], [76.5918778, 12.4243621], [76.5909923, 12.4241357], [76.5900796, 12.4240202], [76.5896958, 12.4240912], [76.5893236, 12.4241626], [76.5890058, 12.4242263], [76.5884356, 12.4240776], [76.5879935, 12.4240843], [76.5876999, 12.4240608], [76.5874153, 12.4239683], [76.5872052, 12.4241448], [76.5869296, 12.4239948], [76.5871494, 12.4206275]]]}, "properties": {"name": "Ranganathittu", "district": "Mandyakarnataka", "state": "Karnataka"}}, {"type": "Feature", "geometry": {"type": "Polygon", "coordinates": [[[76.7872721, 12.3878469], [76.7875035, 12.3877249], [76.7880651, 12.3871968], [76.7882582, 12.3865875], [76.7884992, 12.3859428], [76.7886688, 12.3851808], [76.7887675, 12.3845212], [76.7888461, 12.3838421], [76.7890355, 12.3833417], [76.7891962, 12.3829541], [76.7893476, 12.3824784], [76.7894651, 12.3818294], [76.7899454, 12.3813774], [76.7902888, 12.3809415], [76.7904303, 12.3804102], [76.7905827, 12.3801216], [76.7909522, 12.3796367], [76.7916465, 12.3792038], [76.7921821, 12.3786131], [76.7924421, 12.378178], [76.7927758, 12.377973], [76.7932832, 12.3767538], [76.7937487, 12.3754086], [76.7937489, 12.3745146], [76.7938985, 12.373518], [76.7939056, 12.373468], [76.7939996, 12.3721745], [76.7942461, 12.3709353], [76.7948248, 12.3698814], [76.7954854, 12.3692126], [76.7960323, 12.3682058], [76.7962994, 12.3673556], [76.796747, 12.366155], [76.7975471, 12.3650883], [76.7981173, 12.3641744], [76.7986059, 12.3639643], [76.7991307, 12.3642052], [76.7997852, 12.3640057], [76.8003377, 12.3634006], [76.8006976, 12.3626615], [76.8009452, 12.3618966], [76.8014256, 12.3609408], [76.8020578, 12.3605401], [76.8030824, 12.3596949], [76.8034593, 12.3591575], [76.8037399, 12.3579521], [76.8041049, 12.3569787], [76.8046831, 12.3567339], [76.804725, 12.3567241], [76.8061092, 12.3566482], [76.8070399, 12.3566154], [76.808112, 12.3560814], [76.8093757, 12.3578523], [76.8088835, 12.3581883], [76.8082552, 12.3586592], [76.8075043, 12.3592017], [76.8068732, 12.3598623], [76.806494, 12.3605749], [76.8059723, 12.3611267], [76.8055144, 12.361909], [76.8052476, 12.362534], [76.8049123, 12.3634873], [76.804547, 12.364361], [76.8044773, 12.365042], [76.8042389, 12.3658756], [76.8036853, 12.3661759], [76.8034813, 12.3665205], [76.8031372, 12.3674601], [76.8028437, 12.368284], [76.8028188, 12.3689492], [76.8026614, 12.3695928], [76.8022919, 12.3700733], [76.8019177, 12.3708183], [76.8016712, 12.3713694], [76.8017184, 12.3721546], [76.8014473, 12.3732225], [76.8010459, 12.3740194], [76.8007724, 12.3747907], [76.8008757, 12.3757179], [76.8008649, 12.3764607], [76.8003725, 12.3770962], [76.7999102, 12.3776116], [76.7996232, 12.3779944], [76.7992082, 12.3783428], [76.7986835, 12.378933], [76.7981882, 12.3792496], [76.7976781, 12.3800288], [76.7974848, 12.3809524], [76.7975029, 12.3819338], [76.7976864, 12.3825229], [76.7978753, 12.3827811], [76.7980072, 12.3834465], [76.7979826, 12.3842835], [76.7978443, 12.3851967], [76.7975391, 12.3854558], [76.7967685, 12.3857516], [76.7959685, 12.385966], [76.7950004, 12.3860646], [76.7945216, 12.386227], [76.7937531, 12.3865642], [76.7931476, 12.3869484], [76.792666, 12.3874114], [76.792145, 12.3873633], [76.7914974, 12.3875744], [76.7909525, 12.387982], [76.7904125, 12.3883946], [76.790233, 12.3888784], [76.7895094, 12.389821], [76.7872721, 12.3878469]]]}, "properties": {"name": "Ranganathittu", "district": "Mandyakarnataka", "state": "Karnataka"}}, {"type": "Feature", "geometry": {"type": "Polygon", "coordinates": [[[76.6459486, 12.4249576], [76.6464342, 12.4252408], [76.6471809, 12.425634], [76.6479175, 12.4258753], [76.6487537, 12.4259907], [76.6495271, 12.4260142], [76.6503656, 12.4254025], [76.650416, 12.4249256], [76.6509343, 12.4243992], [76.6505168, 12.4235428], [76.651587, 12.423128], [76.6519876, 12.4229812], [76.6531519, 12.422681], [76.6541829, 12.4227128], [76.6551075, 12.4228666], [76.6557086, 12.4231849], [76.6569255, 12.4234875], [76.6568719, 12.4250129], [76.6582244, 12.4253668], [76.6572816, 12.4264418], [76.6583949, 12.4276408], [76.6598521, 12.4282004], [76.6617797, 12.4282292], [76.6633687, 12.4279149], [76.6652038, 12.4275245], [76.6668472, 12.4265192], [76.6682193, 12.4256788], [76.6696091, 12.4249144], [76.671861, 12.4296821], [76.6707796, 12.4308066], [76.6692413, 12.430919], [76.6679816, 12.4313587], [76.6672168, 12.4323461], [76.666129, 12.4331685], [76.6646974, 12.4336983], [76.6630537, 12.43403], [76.6615611, 12.4339178], [76.660641, 12.4335395], [76.6596365, 12.4333209], [76.6594533, 12.4333181], [76.6582696, 12.4330695], [76.658201, 12.4327968], [76.6589198, 12.4327007], [76.6593011, 12.4324576], [76.6588047, 12.4323064], [76.6579101, 12.4323996], [76.6564309, 12.4323405], [76.6554584, 12.4324057], [76.6547203, 12.432152], [76.6537207, 12.4318535], [76.6527602, 12.4317197], [76.6512354, 12.4312788], [76.6505123, 12.4317111], [76.6499507, 12.4318064], [76.6490291, 12.4313696], [76.6477879, 12.4310566], [76.6466999, 12.4306284], [76.6458408, 12.4301874], [76.6451703, 12.4299142], [76.6439058, 12.4298207], [76.6459486, 12.4249576]]]}, "properties": {"name": "Ranganathittu", "district": "Mandyakarnataka", "state": "Karnataka"}}, {"type": "Feature", "geometry": {"type": "Polygon", "coordinates": [[[76.2267244, 15.1310874], [76.2272775, 15.1308381], [76.2277789, 15.1304497], [76.2280015, 15.1305323], [76.2283911, 15.1303308], [76.2284738, 15.1298351], [76.2279439, 15.1280826], [76.2282806, 15.1266663], [76.2282497, 15.1257501], [76.2284434, 15.1257234], [76.2284169, 15.1253067], [76.2285292, 15.1252783], [76.229501, 15.1253321], [76.2295004, 15.125724], [76.2298077, 15.1263349], [76.2303367, 15.1267481], [76.2311393, 15.1270582], [76.2316115, 15.1269177], [76.2324468, 15.1259184], [76.232502, 15.1254476], [76.2324976, 15.1251156], [76.2322522, 15.1250856], [76.2323892, 15.1241387], [76.2330825, 15.1241133], [76.2330826, 15.1234504], [76.2331958, 15.1231117], [76.234056, 15.1231966], [76.2350004, 15.1235004], [76.2353894, 15.1233903], [76.2357508, 15.1233318], [76.2364735, 15.1226694], [76.2369429, 15.1220305], [76.2375292, 15.1208321], [76.2401111, 15.1221671], [76.2395863, 15.1233938], [76.2393619, 15.1233891], [76.2388077, 15.1244454], [76.2386956, 15.1244188], [76.2381395, 15.1253609], [76.2380282, 15.1253607], [76.2374738, 15.1258054], [76.2373334, 15.1262798], [76.2378339, 15.1269734], [76.2377508, 15.1271959], [76.2369144, 15.1290269], [76.2365824, 15.1289449], [76.2365818, 15.1290298], [76.2364197, 15.1306409], [76.236278, 15.1306692], [76.2365842, 15.13228], [76.2358338, 15.1332224], [76.2357507, 15.1340841], [76.2358602, 15.1345574], [76.2357221, 15.1345843], [76.2343338, 15.1338329], [76.2336686, 15.1335572], [76.233306, 15.1333888], [76.2325838, 15.1328621], [76.2322519, 15.132779], [76.2319173, 15.1326389], [76.2317505, 15.1325828], [76.2314171, 15.1323911], [76.2309451, 15.1321388], [76.2304448, 15.1320015], [76.2300577, 15.1319462], [76.2286403, 15.1319169], [76.2284739, 15.1316396], [76.2265829, 15.131473], [76.2267244, 15.1310874]]]}, "properties": {"name": "Ankasamudra", "district": "Vijayanagarkarnataka", "state": "Karnataka"}}, {"type": "Feature", "geometry": {"type": "Polygon", "coordinates": [[[75.5134955, 15.2177713], [75.5138877, 15.2180052], [75.5143084, 15.2183424], [75.5147504, 15.2185901], [75.5151141, 15.2187758], [75.5156132, 15.2189685], [75.5159769, 15.219113], [75.5166543, 15.2194295], [75.5171677, 15.2195877], [75.5175344, 15.2196864], [75.5179805, 15.2197116], [75.5183941, 15.2197391], [75.5187791, 15.2198354], [75.5192141, 15.2200281], [75.5196562, 15.2204615], [75.5197132, 15.2205303], [75.5195278, 15.2206748], [75.519264, 15.2209225], [75.5189859, 15.2212596], [75.5188263, 15.2215135], [75.5187149, 15.2218169], [75.5186009, 15.2221816], [75.5186365, 15.2223949], [75.5185367, 15.2226288], [75.5183941, 15.2230003], [75.518337, 15.2232893], [75.5183085, 15.2237503], [75.5182729, 15.2240874], [75.5182443, 15.2244039], [75.5183501, 15.2246036], [75.5185866, 15.2250437], [75.5188148, 15.225546], [75.5189859, 15.2258005], [75.5192711, 15.2259106], [75.5198202, 15.2260207], [75.5201767, 15.2260826], [75.5205546, 15.2262615], [75.5207115, 15.2264541], [75.520961, 15.2265161], [75.5213389, 15.2265849], [75.5217454, 15.2267982], [75.5219094, 15.2269495], [75.5218808, 15.2271284], [75.5217668, 15.2272316], [75.5210854, 15.2275978], [75.521151, 15.2278723], [75.5212773, 15.2283555], [75.5213575, 15.2285883], [75.5212636, 15.2286259], [75.521254, 15.2286275], [75.5212245, 15.2286352], [75.5212047, 15.2286413], [75.5211783, 15.2286495], [75.5211651, 15.2286536], [75.5211549, 15.2286582], [75.5211417, 15.2286623], [75.5211219, 15.2286684], [75.5211056, 15.228672], [75.5210929, 15.2286732], [75.52107, 15.2286789], [75.5210441, 15.2286841], [75.521041, 15.2286836], [75.5210248, 15.2286873], [75.5210054, 15.2286904], [75.5209896, 15.2286911], [75.5209703, 15.2286943], [75.5209505, 15.2287004], [75.5209311, 15.2287036], [75.5209083, 15.2287093], [75.5209021, 15.2287084], [75.5208889, 15.2287125], [75.5208635, 15.2287148], [75.5208477, 15.2287154], [75.5208411, 15.2287175], [75.5208248, 15.2287211], [75.5208029, 15.2287209], [75.520784, 15.2287211], [75.5207656, 15.2287184], [75.5207498, 15.2287191], [75.5207284, 15.2287159], [75.5206902, 15.2287193], [75.520659, 15.2287177], [75.520634, 15.228717], [75.520606, 15.2287159], [75.5205841, 15.2287156], [75.5205652, 15.2287159], [75.5205489, 15.2287195], [75.520527, 15.2287193], [75.5205051, 15.228719], [75.5204893, 15.2287197], [75.5204582, 15.2287181], [75.5204082, 15.2287168], [75.5204051, 15.2287163], [75.5203898, 15.228714], [75.5203643, 15.2287163], [75.5203455, 15.2287165], [75.5203235, 15.2287163], [75.5203068, 15.2287229], [75.5202813, 15.2287252], [75.5202778, 15.2287277], [75.5202493, 15.2287295], [75.5202401, 15.2287281], [75.5202273, 15.2287292], [75.5201993, 15.2287281], [75.5201835, 15.2287288], [75.5201646, 15.228729], [75.5201519, 15.2287301], [75.5201356, 15.2287338], [75.5201163, 15.228737], [75.5200878, 15.2287388], [75.5200623, 15.2287411], [75.520046, 15.2287447], [75.5200078, 15.2287481], [75.5200012, 15.2287501], [75.5199763, 15.2287495], [75.5199605, 15.2287501], [75.5199477, 15.2287513], [75.5199293, 15.2287485], [75.5199008, 15.2287504], [75.5198758, 15.2287497], [75.5198565, 15.2287528], [75.5198341, 15.2287556], [75.5198306, 15.2287581], [75.5198016, 15.2287629], [75.5197735, 15.2287617], [75.5197674, 15.2287608], [75.5197455, 15.2287606], [75.5197327, 15.2287617], [75.51972, 15.2287628], [75.5196985, 15.2287597], [75.51967, 15.2287615], [75.519667, 15.228761], [75.5196516, 15.2287587], [75.5196271, 15.2287551], [75.5195995, 15.228751], [75.5195903, 15.2287496], [75.5195663, 15.228743], [75.5195453, 15.2287369], [75.5195392, 15.228736], [75.5195213, 15.2287303], [75.5195182, 15.2287298], [75.5194885, 15.2287194], [75.5194859, 15.228716], [75.519468, 15.2287103], [75.5194506, 15.2287016], [75.5194352, 15.2286993], [75.519423, 15.2286975], [75.519402, 15.2286914], [75.5193902, 15.2286866], [75.5193688, 15.2286834], [75.5193473, 15.2286802], [75.5193289, 15.2286775], [75.5193009, 15.2286763], [75.5192912, 15.2286779], [75.5192719, 15.2286811], [75.5192561, 15.2286818], [75.5191856, 15.2286713], [75.5191703, 15.2286691], [75.5191427, 15.228665], [75.5191305, 15.2286631], [75.5191182, 15.2286613], [75.519106, 15.2286595], [75.519089, 15.2286479], [75.5190781, 15.2286372], [75.5190678, 15.2286235], [75.5190626, 15.2286167], [75.5190506, 15.2285937], [75.519048, 15.2285903], [75.5190411, 15.2285742], [75.5190312, 15.2285576], [75.519027, 15.2285448], [75.5190192, 15.2285346], [75.5190129, 15.2285155], [75.5190072, 15.2285116], [75.5189983, 15.2284891], [75.5189884, 15.2284725], [75.5189841, 15.2284598], [75.5189742, 15.2284432], [75.518957, 15.2284134], [75.5189502, 15.2283972], [75.5189455, 15.2283874], [75.518936, 15.2283679], [75.5189257, 15.2283542], [75.5189163, 15.2283347], [75.5189059, 15.228321], [75.5188913, 15.2282946], [75.5188793, 15.2282717], [75.5188672, 15.2282487], [75.518863, 15.2282359], [75.5188583, 15.2282262], [75.5188458, 15.2282062], [75.5188442, 15.2281968], [75.5188326, 15.2281709], [75.5188284, 15.2281582], [75.5188163, 15.2281352], [75.5188013, 15.2281118], [75.5187966, 15.228102], [75.5187888, 15.2280917], [75.5187794, 15.2280722], [75.5187711, 15.2280649], [75.5187577, 15.2280508], [75.5187381, 15.2280358], [75.5186952, 15.2280082], [75.5186827, 15.2279882], [75.5186745, 15.2279809], [75.5186611, 15.2279668], [75.5186528, 15.2279595], [75.5186323, 15.2279504], [75.5186236, 15.2279461], [75.5186087, 15.2279409], [75.5185969, 15.2279361], [75.5185847, 15.2279343], [75.5185597, 15.2279336], [75.5185531, 15.2279356], [75.5185281, 15.227935], [75.5185154, 15.2279361], [75.5184935, 15.2279359], [75.5184772, 15.2279395], [75.5184614, 15.2279402], [75.5184517, 15.2279418], [75.5184293, 15.2279445], [75.5184126, 15.2279511], [75.5183999, 15.2279522], [75.5183933, 15.2279543], [75.518374, 15.2279575], [75.5183608, 15.2279616], [75.518341, 15.2279677], [75.518315, 15.2279729], [75.5182851, 15.2279836], [75.5182754, 15.2279852], [75.5182526, 15.2279909], [75.5182429, 15.2279925], [75.5182236, 15.2279957], [75.5182073, 15.2279993], [75.5181875, 15.2280054], [75.5181017, 15.2280297], [75.5179021, 15.2280434], [75.5173887, 15.2280297], [75.5170464, 15.2280572], [75.5169751, 15.2278852], [75.5169395, 15.2275687], [75.516728, 15.2270859], [75.5164487, 15.2271869], [75.5162041, 15.2273148], [75.5161053, 15.2272452], [75.5159762, 15.2267594], [75.5158817, 15.2265794], [75.5157669, 15.226503], [75.5156275, 15.2264266], [75.5154833, 15.2263233], [75.5153922, 15.2260001], [75.5151426, 15.2256354], [75.515, 15.225202], [75.5149501, 15.2247823], [75.5148889, 15.2245439], [75.514836, 15.2242732], [75.514508, 15.224342], [75.5142157, 15.2243626], [75.5141372, 15.2243351], [75.5140018, 15.224053], [75.5138591, 15.2236127], [75.5138328, 15.2234], [75.5138948, 15.2231586], [75.5139976, 15.2228148], [75.5139729, 15.2226931], [75.5137976, 15.2220533], [75.5136395, 15.2211702], [75.5134815, 15.2205864], [75.5133163, 15.2202799], [75.5132531, 15.2200074], [75.5130551, 15.2195638], [75.5129179, 15.2190786], [75.5128609, 15.2189203], [75.5129964, 15.2185006], [75.5131105, 15.2181704], [75.5131604, 15.2179296], [75.5132245, 15.2178332], [75.513303, 15.2177919], [75.5134955, 15.2177713]]]}, "properties": {"name": "Magadi Kere", "district": "Gadagkarnataka", "state": "Karnataka"}}, {"type": "Feature", "geometry": {"type": "Polygon", "coordinates": [[[74.1043263, 15.23979], [74.1043118, 15.2397253], [74.1042606, 15.2396031], [74.1041759, 15.2395275], [74.1039209, 15.2395193], [74.1035478, 15.239507], [74.1034702, 15.2394888], [74.1033632, 15.2394596], [74.1032932, 15.2394127], [74.1031831, 15.2392365], [74.1031391, 15.2391466], [74.1031289, 15.2389385], [74.103144, 15.2388668], [74.1033816, 15.238595], [74.1034213, 15.2379638], [74.1034625, 15.2378204], [74.1035999, 15.2376559], [74.1038447, 15.2374416], [74.1040857, 15.2372704], [74.104241, 15.2372279], [74.1043187, 15.2372247], [74.1044443, 15.2372359], [74.1045881, 15.2373047], [74.1046655, 15.2373552], [74.1047243, 15.2374164], [74.1048936, 15.2375821], [74.1049637, 15.2376075], [74.1050118, 15.2376077], [74.1050599, 15.23759], [74.1051229, 15.2375508], [74.1052306, 15.2374256], [74.1053312, 15.2372215], [74.1053905, 15.2371823], [74.1054459, 15.2371753], [74.1056084, 15.2371975], [74.1056675, 15.2372193], [74.1057228, 15.2372374], [74.1059556, 15.2372384], [74.1060629, 15.2372065], [74.1063548, 15.2372292], [74.1066726, 15.2372305], [74.1067652, 15.2371698], [74.106843, 15.2371127], [74.106873, 15.2370232], [74.1069329, 15.2368476], [74.1070188, 15.2366219], [74.1071273, 15.236303], [74.10715, 15.2361704], [74.1071211, 15.2360303], [74.1070773, 15.2358974], [74.1070118, 15.2356496], [74.1069692, 15.2352296], [74.1069738, 15.2350359], [74.106989, 15.2349355], [74.1070152, 15.2348459], [74.1070711, 15.2347421], [74.1070567, 15.2346524], [74.1070237, 15.2345876], [74.1069573, 15.2345587], [74.1068798, 15.2345368], [74.1067986, 15.2345114], [74.1067728, 15.2344898], [74.1067398, 15.2344287], [74.1066111, 15.2342882], [74.1064715, 15.2340939], [74.1062549, 15.2337594], [74.1061079, 15.2335651], [74.1060307, 15.2334679], [74.1060163, 15.233371], [74.1060357, 15.2331665], [74.1060841, 15.2330591], [74.1061436, 15.2329732], [74.1063657, 15.2328952], [74.1068129, 15.2328683], [74.1069719, 15.2328509], [74.1070052, 15.232826], [74.1070572, 15.2327759], [74.1070906, 15.2327366], [74.1070871, 15.23269], [74.1070504, 15.2326324], [74.1069804, 15.2325891], [74.106748, 15.2324985], [74.1066226, 15.232437], [74.1065895, 15.2324045], [74.106586, 15.2323435], [74.1066119, 15.2323329], [74.1068595, 15.232341], [74.1072178, 15.2323712], [74.1073987, 15.2324113], [74.1075278, 15.2324549], [74.1077121, 15.2325705], [74.1079001, 15.2326717], [74.1080544, 15.2328911], [74.1081494, 15.2331427], [74.1081822, 15.2332719], [74.1082337, 15.233308], [74.1083409, 15.2333084], [74.1084183, 15.2333662], [74.1084735, 15.2334058], [74.1085216, 15.2333881], [74.1085366, 15.2333379], [74.1085595, 15.2331802], [74.1085636, 15.2330761], [74.1084939, 15.2329539], [74.1084611, 15.2328461], [74.1084615, 15.2327385], [74.1084771, 15.2325591], [74.108507, 15.2324839], [74.1085259, 15.2323656], [74.1085013, 15.2320821], [74.1084614, 15.2318989], [74.1084138, 15.2317839], [74.1083662, 15.2316797], [74.1083369, 15.2316258], [74.1083223, 15.2315826], [74.1083226, 15.2315109], [74.1083375, 15.2314787], [74.1083634, 15.231468], [74.1084151, 15.2314718], [74.1084447, 15.2314827], [74.1085147, 15.2315188], [74.1085736, 15.2315693], [74.1086361, 15.2316628], [74.1086836, 15.2317814], [74.1087274, 15.2319036], [74.1088411, 15.2321229], [74.108962, 15.2323566], [74.1090351, 15.232547], [74.1091046, 15.2327123], [74.1091635, 15.2327664], [74.1092961, 15.2328638], [74.1094436, 15.2329469], [74.1096575, 15.2330589], [74.1098456, 15.2331279], [74.1100522, 15.233222], [74.1102661, 15.2333233], [74.1103913, 15.2334242], [74.1106233, 15.2336081], [74.110796, 15.2338348], [74.1109285, 15.2339789], [74.1110059, 15.2340115], [74.1111645, 15.2340803], [74.1112419, 15.2341344], [74.1112787, 15.2341668], [74.1112822, 15.2342099], [74.1112524, 15.2342636], [74.111219, 15.2342993], [74.1110932, 15.2343383], [74.1109341, 15.2343915], [74.1107714, 15.2344303], [74.1106419, 15.2344657], [74.1105418, 15.2345299], [74.110401, 15.2346369], [74.11026, 15.2347691], [74.1100709, 15.2349262], [74.1099594, 15.2350621], [74.1098627, 15.2352304], [74.1097804, 15.2354489], [74.1097355, 15.2355815], [74.1097349, 15.2357357], [74.1097532, 15.2357825], [74.1097937, 15.2358077], [74.1098527, 15.2358367], [74.1099339, 15.2358693], [74.1100852, 15.2359093], [74.1102106, 15.2359672], [74.11031, 15.2360466], [74.1103431, 15.2360969], [74.1103797, 15.2361904], [74.1104237, 15.2362623], [74.1104457, 15.2362947], [74.1105196, 15.2363129], [74.1106674, 15.2363135], [74.1108188, 15.2363392], [74.1109333, 15.2363432], [74.1110553, 15.2363437], [74.1111289, 15.236405], [74.1112246, 15.2364915], [74.1112613, 15.2365598], [74.1112756, 15.2366603], [74.1112972, 15.2368147], [74.1113118, 15.2368399], [74.111393, 15.2368689], [74.1114519, 15.2369158], [74.1114999, 15.2369411], [74.1115812, 15.2369414], [74.1117881, 15.2369386], [74.1118252, 15.2369172], [74.111888, 15.2369139], [74.1119692, 15.2369321], [74.1120171, 15.236961], [74.112065, 15.2370115], [74.112098, 15.2370726], [74.112094, 15.2371443], [74.1120864, 15.2371838], [74.1120604, 15.2372088], [74.1120419, 15.2372195], [74.1120197, 15.237223], [74.1118054, 15.2372185], [74.1117168, 15.237211], [74.1116503, 15.2371892], [74.111536, 15.2371457], [74.1113552, 15.237084], [74.1112188, 15.2369973], [74.1111157, 15.2369037], [74.110954, 15.2366913], [74.1108584, 15.2365797], [74.1107662, 15.2365471], [74.110574, 15.2365391], [74.1105074, 15.236564], [74.1104777, 15.2365926], [74.1104517, 15.2366248], [74.1104405, 15.2366606], [74.1104403, 15.2367144], [74.1104512, 15.2367575], [74.1105467, 15.2368978], [74.1105865, 15.2370917], [74.1105745, 15.2373033], [74.1105556, 15.2374181], [74.1105328, 15.2375579], [74.1104842, 15.2376905], [74.1104132, 15.2378839], [74.1103793, 15.2380417], [74.1103196, 15.2381598], [74.1102638, 15.2382565], [74.1102118, 15.2383137], [74.1102116, 15.2383711], [74.1102111, 15.2384823], [74.1102108, 15.2385576], [74.1101958, 15.2386186], [74.1101771, 15.2386651], [74.1101473, 15.238726], [74.1100953, 15.2387724], [74.1100323, 15.2388152], [74.1099324, 15.2388507], [74.1097882, 15.238886], [74.1094073, 15.2389348], [74.1088711, 15.2390223], [74.1086308, 15.2390644], [74.1084532, 15.2390996], [74.1082535, 15.2391383], [74.1080833, 15.239195], [74.1079537, 15.2392519], [74.1078944, 15.2392875], [74.1078647, 15.2393376], [74.1078348, 15.2394021], [74.1077673, 15.2396494], [74.1077736, 15.2399041], [74.107751, 15.2400117], [74.1077248, 15.2400762], [74.1077061, 15.2401227], [74.1076394, 15.2401691], [74.1075617, 15.2401903], [74.1074508, 15.2402186], [74.1073768, 15.2402398], [74.1072473, 15.2402788], [74.1070439, 15.2403103], [74.1068072, 15.2403631], [74.1066333, 15.2403983], [74.1064003, 15.2404548], [74.1062154, 15.2404899], [74.1061154, 15.2405218], [74.105986, 15.2405572], [74.1059488, 15.2405965], [74.1059302, 15.2406359], [74.1059115, 15.2406896], [74.1058891, 15.2407505], [74.1058666, 15.240815], [74.1058256, 15.240901], [74.1057921, 15.2409547], [74.105729, 15.2410226], [74.1056586, 15.2410689], [74.1055882, 15.2411081], [74.1054108, 15.2411289], [74.1049453, 15.2410912], [74.1046424, 15.2410505], [74.1044542, 15.2409888], [74.1043657, 15.2409526], [74.1043142, 15.2408878], [74.1042924, 15.2408159], [74.1042929, 15.2406832], [74.1043127, 15.2403855], [74.1043263, 15.23979]]]}, "properties": {"name": "Nanda", "district": "South Goagoa", "state": "Goa"}}]}